H-2A R/B                
1 28932U 06002B   26067.42141550  .00016785  00000+0  83775-3 0  9994
2 28932  98.2409 214.3354 0051984 245.4365 114.1443 15.16390570 94240
RESURS-DK 1             
1 29228U 06021A   26067.60973318  .00004591  00000+0  26739-3 0  9998
2 29228  69.9314 239.8164 0002011 163.2558 196.8675 15.12735699 87368
CZ-4B R/B               
1 29507U 06046C   26067.61972672  .00006842  00000+0  34639-3 0  9997
2 29507  97.5593 112.5313 0031669 271.2591  88.5014 15.16892202 59883
CZ-2C R/B               
1 31114U 07010B   26067.31688769  .00000189  00000+0  10608-3 0  9992
2 31114  98.3979 180.6645 0057938 298.6678  60.8682 14.20245714979527
COSMO-SKYMED 1          
1 31598U 07023A   26067.59467344  .00005482  00000+0  48734-3 0  9998
2 31598  97.8868 258.6176 0001142 101.5156 258.6193 14.96525751 14741
COSMOS 2428             
1 31792U 07029A   26067.61438583  .00000071  00000+0  63586-4 0  9998
2 31792  70.9430 205.5996 0009078 278.1267  81.8824 14.12945874963947
SL-16 R/B               
1 31793U 07029B   26067.56411669  .00000007  00000+0  28204-4 0  9996
2 31793  70.9759 174.7506 0002315 276.3599  95.0936 14.14833249965218
KORONAS-FOTON           
1 33504U 09003A   26067.53237725  .00016711  00000+0  37360-3 0  9999
2 33504  82.4274 277.0813 0011246 153.2660 206.9170 15.43297157945567
CZ-2C R/B               
1 37731U 11030B   26067.47315147  .00002606  00000+0  33376-3 0  9997
2 37731  97.8549  24.7607 0052520 356.0450 116.4277 14.81218145789915
H-2A R/B                
1 38341U 12025E   26067.45706116  .00006616  00000+0  59743-3 0  9999
2 38341  98.4741  34.4046 0043410 318.6146  41.1786 14.95158696748039
SHIJIAN-16 (SJ-16)      
1 39358U 13057A   26067.62345390  .00003526  00000+0  34675-3 0  9990
2 39358  74.9736 187.1060 0015479 115.6312 244.6477 14.92341202671347
SL-4 R/B                
1 39679U 14021B   26067.46024518  .00020338  00000+0  44532-3 0  9999
2 39679  51.6077 343.2763 0097684  98.5370 262.6698 15.39134310656080
